{
  "norad_id": 56301,
  "name": "STARLINK-30101",
  "history": [
    {
      "epoch": "2026-03-28T12:19:26.126976Z",
      "apogee_km": 483.8643270061084,
      "perigee_km": 482.21215600795404,
      "latitude_deg": -1.1467619530045404e-06,
      "longitude_deg": 91.3965750206967,
      "height_km": 482.8733643965253,
      "semi_major_axis_km": 6861.175241507031,
      "eccentricity": 0.0001204,
      "inclination_deg": 43.002,
      "raan_deg": 102.1883,
      "arg_perigee_deg": 265.9479,
      "mean_anomaly_deg": 94.1235,
      "mean_motion_rev_day": 15.27583625
    },
    {
      "epoch": "2026-03-29T00:52:41.374272Z",
      "apogee_km": 483.8351257968561,
      "perigee_km": 482.2940999146085,
      "latitude_deg": -5.106417831552302e-05,
      "longitude_deg": -100.38749290549123,
      "height_km": 482.96876203464404,
      "semi_major_axis_km": 6861.201612855732,
      "eccentricity": 0.0001123,
      "inclination_deg": 43.0025,
      "raan_deg": 99.2334,
      "arg_perigee_deg": 260.4806,
      "mean_anomaly_deg": 99.5918,
      "mean_motion_rev_day": 15.27574818
    },
    {
      "epoch": "2026-03-30T00:25:02.064000Z",
      "apogee_km": 483.5411806250704,
      "perigee_km": 482.5353323324707,
      "latitude_deg": 1.620709315779131e-05,
      "longitude_deg": -99.97874354510965,
      "height_km": 482.7850357508082,
      "semi_major_axis_km": 6861.17525647877,
      "eccentricity": 7.33e-05,
      "inclination_deg": 43.0015,
      "raan_deg": 93.695,
      "arg_perigee_deg": 273.3636,
      "mean_anomaly_deg": 86.7132,
      "mean_motion_rev_day": 15.2758362
    },
    {
      "epoch": "2026-03-30T06:41:39.648768Z",
      "apogee_km": 483.5353422415692,
      "perigee_km": 482.54719534729793,
      "latitude_deg": -7.655160950472151e-06,
      "longitude_deg": 164.129736491442,
      "height_km": 482.8235047145175,
      "semi_major_axis_km": 6861.178268794433,
      "eccentricity": 7.201e-05,
      "inclination_deg": 43.0016,
      "raan_deg": 92.2179,
      "arg_perigee_deg": 269.3099,
      "mean_anomaly_deg": 90.767,
      "mean_motion_rev_day": 15.27582614
    },
    {
      "epoch": "2026-03-30T11:24:07.905600Z",
      "apogee_km": 483.57685593090173,
      "perigee_km": 482.51844958636684,
      "latitude_deg": -4.133115245967809e-05,
      "longitude_deg": 92.21071951393097,
      "height_km": 482.8711674494786,
      "semi_major_axis_km": 6861.184652758634,
      "eccentricity": 7.713e-05,
      "inclination_deg": 43.0019,
      "raan_deg": 91.11,
      "arg_perigee_deg": 264.888,
      "mean_anomaly_deg": 95.1883,
      "mean_motion_rev_day": 15.27580482
    },
    {
      "epoch": "2026-03-31T06:13:59.082240Z",
      "apogee_km": 483.44222500187243,
      "perigee_km": 482.55302195466993,
      "latitude_deg": -1.4193859346917518e-05,
      "longitude_deg": 164.54145656249798,
      "height_km": 483.19874630962585,
      "semi_major_axis_km": 6861.13462347827,
      "eccentricity": 6.48e-05,
      "inclination_deg": 43.0,
      "raan_deg": 86.6773,
      "arg_perigee_deg": 196.8177,
      "mean_anomaly_deg": 163.2653,
      "mean_motion_rev_day": 15.2759719
    },
    {
      "epoch": "2026-04-01T10:28:49.385280Z",
      "apogee_km": 483.8327110527407,
      "perigee_km": 482.2834532031975,
      "latitude_deg": -1.9613233837196998e-05,
      "longitude_deg": 93.0268807106059,
      "height_km": 482.93093209536664,
      "semi_major_axis_km": 6861.195082127969,
      "eccentricity": 0.0001129,
      "inclination_deg": 43.003,
      "raan_deg": 80.0324,
      "arg_perigee_deg": 262.8764,
      "mean_anomaly_deg": 97.1959,
      "mean_motion_rev_day": 15.27576999
    },
    {
      "epoch": "2026-04-02T10:01:10.072416Z",
      "apogee_km": 483.85809473728204,
      "perigee_km": 482.19343942673277,
      "latitude_deg": -1.4703975540663717e-05,
      "longitude_deg": 93.4355748764405,
      "height_km": 482.72551850644453,
      "semi_major_axis_km": 6861.162767082007,
      "eccentricity": 0.00012131,
      "inclination_deg": 43.0028,
      "raan_deg": 74.494,
      "arg_perigee_deg": 275.3159,
      "mean_anomaly_deg": 84.7554,
      "mean_motion_rev_day": 15.27587791
    },
    {
      "epoch": "2026-04-03T09:33:30.402720Z",
      "apogee_km": 483.75290201294683,
      "perigee_km": 482.26499390267145,
      "latitude_deg": -1.4744508789278581e-05,
      "longitude_deg": 93.84765402465236,
      "height_km": 482.65657767836007,
      "semi_major_axis_km": 6861.145947957809,
      "eccentricity": 0.00010843,
      "inclination_deg": 43.0008,
      "raan_deg": 68.9575,
      "arg_perigee_deg": 279.9774,
      "mean_anomaly_deg": 80.0955,
      "mean_motion_rev_day": 15.27593408
    },
    {
      "epoch": "2026-04-04T07:31:41.396448Z",
      "apogee_km": 483.98115913523907,
      "perigee_km": 482.07293219086023,
      "latitude_deg": 5.658973795400286e-05,
      "longitude_deg": 118.22635818701593,
      "height_km": 483.0119091401845,
      "semi_major_axis_km": 6861.164045663049,
      "eccentricity": 0.00013906,
      "inclination_deg": 43.0039,
      "raan_deg": 63.7842,
      "arg_perigee_deg": 257.4206,
      "mean_anomaly_deg": 102.6491,
      "mean_motion_rev_day": 15.27587364
    },
    {
      "epoch": "2026-04-05T07:04:03.324288Z",
      "apogee_km": 484.0922119757879,
      "perigee_km": 482.07364107340527,
      "latitude_deg": 1.4896016920825064e-06,
      "longitude_deg": 118.6297024451927,
      "height_km": 482.9619794107228,
      "semi_major_axis_km": 6861.219926524596,
      "eccentricity": 0.0001471,
      "inclination_deg": 43.0045,
      "raan_deg": 58.2457,
      "arg_perigee_deg": 264.2105,
      "mean_anomaly_deg": 95.8579,
      "mean_motion_rev_day": 15.27568702
    },
    {
      "epoch": "2026-04-05T21:11:28.042080Z",
      "apogee_km": 483.9808964576159,
      "perigee_km": 482.15444377443146,
      "latitude_deg": 4.814860046925664e-05,
      "longitude_deg": -97.12527253536693,
      "height_km": 482.956027824135,
      "semi_major_axis_km": 6861.204670116023,
      "eccentricity": 0.0001331,
      "inclination_deg": 43.0043,
      "raan_deg": 54.9237,
      "arg_perigee_deg": 263.002,
      "mean_anomaly_deg": 97.0681,
      "mean_motion_rev_day": 15.27573797
    },
    {
      "epoch": "2026-04-06T06:36:24.019200Z",
      "apogee_km": 483.6710401906457,
      "perigee_km": 482.47760109353385,
      "latitude_deg": -3.7205985347007194e-05,
      "longitude_deg": 119.04001469325348,
      "height_km": 482.78737368859265,
      "semi_major_axis_km": 6861.21132064209,
      "eccentricity": 8.697e-05,
      "inclination_deg": 43.0035,
      "raan_deg": 52.709,
      "arg_perigee_deg": 276.1174,
      "mean_anomaly_deg": 83.9578,
      "mean_motion_rev_day": 15.27571576
    },
    {
      "epoch": "2026-04-07T13:59:32.870976Z",
      "apogee_km": 483.7156716702839,
      "perigee_km": 482.4628117585462,
      "latitude_deg": -1.4036561658875705e-05,
      "longitude_deg": -0.4211151908661867,
      "height_km": 482.90118466728336,
      "semi_major_axis_km": 6861.226241714415,
      "eccentricity": 9.13e-05,
      "inclination_deg": 43.004,
      "raan_deg": 45.3237,
      "arg_perigee_deg": 266.7771,
      "mean_anomaly_deg": 93.2976,
      "mean_motion_rev_day": 15.27566593
    },
    {
      "epoch": "2026-04-07T13:59:32.871840Z",
      "apogee_km": 483.715740282546,
      "perigee_km": 482.4627431462841,
      "latitude_deg": -1.3251607487796513e-05,
      "longitude_deg": -0.42111796373271276,
      "height_km": 482.90118852418965,
      "semi_major_axis_km": 6861.226241714415,
      "eccentricity": 9.131e-05,
      "inclination_deg": 43.004,
      "raan_deg": 45.3237,
      "arg_perigee_deg": 266.7771,
      "mean_anomaly_deg": 93.2976,
      "mean_motion_rev_day": 15.27566593
    },
    {
      "epoch": "2026-04-08T13:31:53.037984Z",
      "apogee_km": 483.8537189958852,
      "perigee_km": 482.252042830085,
      "latitude_deg": 1.6993104299023528e-05,
      "longitude_deg": -0.010723989384262217,
      "height_km": 482.7393001361991,
      "semi_major_axis_km": 6861.189880912984,
      "eccentricity": 0.00011672,
      "inclination_deg": 43.0043,
      "raan_deg": 39.7848,
      "arg_perigee_deg": 276.4937,
      "mean_anomaly_deg": 83.5782,
      "mean_motion_rev_day": 15.27578736
    },
    {
      "epoch": "2026-04-09T13:04:14.928672Z",
      "apogee_km": 483.91150399216167,
      "perigee_km": 482.33204222259246,
      "latitude_deg": 3.1379327757891014e-06,
      "longitude_deg": 0.3928177208219773,
      "height_km": 482.85745230716026,
      "semi_major_axis_km": 6861.258773107377,
      "eccentricity": 0.0001151,
      "inclination_deg": 43.0056,
      "raan_deg": 34.2463,
      "arg_perigee_deg": 273.0081,
      "mean_anomaly_deg": 87.0639,
      "mean_motion_rev_day": 15.27555729
    },
    {
      "epoch": "2026-04-10T04:45:49.309632Z",
      "apogee_km": 483.88038471494747,
      "perigee_km": 482.34675798723856,
      "latitude_deg": -1.7222803951185682e-05,
      "longitude_deg": 120.66345638340998,
      "height_km": 482.7659704959933,
      "semi_major_axis_km": 6861.250571351093,
      "eccentricity": 0.00011176,
      "inclination_deg": 43.0036,
      "raan_deg": 30.5547,
      "arg_perigee_deg": 279.3419,
      "mean_anomaly_deg": 80.7306,
      "mean_motion_rev_day": 15.27558468
    },
    {
      "epoch": "2026-04-11T12:08:53.888928Z",
      "apogee_km": 484.0891395774406,
      "perigee_km": 481.7893068274234,
      "latitude_deg": -4.97439941082866e-05,
      "longitude_deg": 1.2192186613322642,
      "height_km": 482.6722616901161,
      "semi_major_axis_km": 6861.076223202432,
      "eccentricity": 0.0001676,
      "inclination_deg": 43.0024,
      "raan_deg": 23.1685,
      "arg_perigee_deg": 272.2009,
      "mean_anomaly_deg": 87.865,
      "mean_motion_rev_day": 15.27616694
    },
    {
      "epoch": "2026-04-13T03:22:50.839680Z",
      "apogee_km": 483.77974606452517,
      "perigee_km": 482.34438322020105,
      "latitude_deg": 4.22951243533382e-05,
      "longitude_deg": 121.88839984779558,
      "height_km": 483.01218790920143,
      "semi_major_axis_km": 6861.199064642363,
      "eccentricity": 0.0001046,
      "inclination_deg": 43.0045,
      "raan_deg": 13.9361,
      "arg_perigee_deg": 256.0284,
      "mean_anomaly_deg": 104.0452,
      "mean_motion_rev_day": 15.27575669
    },
    {
      "epoch": "2026-04-14T18:36:45.425664Z",
      "apogee_km": 483.7806613990342,
      "perigee_km": 482.3617635406954,
      "latitude_deg": -2.014565331125669e-05,
      "longitude_deg": -117.4318006389678,
      "height_km": 482.87918302687353,
      "semi_major_axis_km": 6861.2082124698645,
      "eccentricity": 0.0001034,
      "inclination_deg": 43.0043,
      "raan_deg": 4.7046,
      "arg_perigee_deg": 267.4872,
      "mean_anomaly_deg": 92.5861,
      "mean_motion_rev_day": 15.27572614
    },
    {
      "epoch": "2026-04-15T10:18:19.537056Z",
      "apogee_km": 483.80581181499383,
      "perigee_km": 482.3858110723377,
      "latitude_deg": -2.3892270697126235e-05,
      "longitude_deg": 2.8381850115062037,
      "height_km": 482.97506169796986,
      "semi_major_axis_km": 6861.232811443666,
      "eccentricity": 0.00010348,
      "inclination_deg": 43.005,
      "raan_deg": 1.0112,
      "arg_perigee_deg": 261.7139,
      "mean_anomaly_deg": 98.3595,
      "mean_motion_rev_day": 15.27564399
    },
    {
      "epoch": "2026-04-16T09:50:39.869088Z",
      "apogee_km": 483.78757589184715,
      "perigee_km": 482.3330020665835,
      "latitude_deg": -2.157714471281523e-05,
      "longitude_deg": 3.249460994573523,
      "height_km": 482.8654679705872,
      "semi_major_axis_km": 6861.197288979215,
      "eccentricity": 0.000106,
      "inclination_deg": 43.0057,
      "raan_deg": 355.4739,
      "arg_perigee_deg": 267.7831,
      "mean_anomaly_deg": 92.2899,
      "mean_motion_rev_day": 15.27576262
    }
  ]
}